{"type":"FeatureCollection","features":[{"type":"Feature","geometry":{"type":"Polygon","coordinates":[[[112.64465700700009,-8.04860152599997],[112.6933666430001,-7.985524197999951],[112.65806974500003,-7.965269393999961],[112.66145266100011,-7.925515857999926],[112.63020711600007,-7.910846883999966],[112.58987552400004,-7.936189112999955],[112.59735977500009,-8.005967029999965],[112.64465700700009,-8.04860152599997]]]},"properties":{"name":"MALANG","KABKOT":"MALANG","WADMKK":"MALANG","rawName":"MALANG"}},{"type":"Feature","geometry":{"type":"Polygon","coordinates":[[[113.393604535,-7.217321738999942],[113.54916810000009,-7.23264913099996],[113.60201585000004,-7.128452256999935],[113.62119209200011,-7.084835343999941],[113.5765891740001,-7.031864337999934],[113.64008799200008,-6.927690659999939],[113.64253260600003,-6.887582022999936],[113.48338619000003,-6.896718128999964],[113.3948155710001,-7.030098193999947],[113.39527921400008,-7.070669708999958],[113.36391762500011,-7.100281846999962],[113.3792588980001,-7.148402702999931],[113.37193468400005,-7.194619160999935],[113.393604535,-7.217321738999942]]]},"properties":{"name":"PAMEKASAN","KABKOT":"PAMEKASAN","WADMKK":"PAMEKASAN","rawName":"PAMEKASAN"}},{"type":"Feature","geometry":{"type":"Polygon","coordinates":[[[111.51068870700004,-7.659249719999934],[111.54172542200007,-7.658704589999957],[111.55848899900008,-7.599360841999953],[111.50088317500007,-7.607601869999939],[111.51166532100007,-7.648859848999962],[111.51068870700004,-7.659249719999934]]]},"properties":{"name":"MADIUN","KABKOT":"MADIUN","WADMKK":"MADIUN","rawName":"MADIUN"}},{"type":"Feature","geometry":{"type":"Polygon","coordinates":[[[111.40353413600008,-8.270365348999974],[111.42648273400005,-8.258563212999945],[111.46393195500008,-8.322400630999937],[111.51175694100004,-8.33268196499995],[111.55023169700007,-8.305978910999954],[111.68320295400008,-8.374658606999958],[111.68844700400007,-8.33537810699994],[111.76969088000004,-8.288821174999953],[111.75138082100005,-8.288331064999966],[111.71810360900008,-8.191881560999946],[111.73361248000003,-8.142207047999932],[111.81356822200007,-8.136984925999968],[111.84097488300006,-8.11899113499993],[111.78021614500005,-8.039231452999957],[111.75454073700007,-8.030846400999962],[111.75911517600008,-7.983673492999969],[111.73810597300007,-7.958453365999958],[111.75529599300006,-7.908284980999952],[111.74093992400009,-7.879155408999964],[111.68813523700004,-7.933082571999932],[111.64702129500006,-7.954922512999929],[111.65631088400005,-7.996350223999968],[111.58336996100007,-8.025138992999928],[111.53529642300003,-8.059702391999963],[111.52787479700004,-8.107361566999941],[111.48303629500003,-8.125886227999956],[111.46536800800004,-8.175029620999965],[111.42480503100006,-8.17036830099994],[111.39356499700006,-8.229804138999953],[111.40353413600008,-8.270365348999974]]]},"properties":{"name":"TRENGGALEK","KABKOT":"TRENGGALEK","WADMKK":"TRENGGALEK","rawName":"TRENGGALEK"}},{"type":"Feature","geometry":{"type":"Polygon","coordinates":[[[111.79920195000005,-7.836567332999948],[111.90029870900008,-7.739726843999961],[111.95425610500007,-7.679565785999955],[112.00224338100008,-7.752345121999952],[112.05906896700003,-7.72352062799996],[112.10118888300008,-7.635174800999948],[112.11047799100004,-7.593147716999965],[112.11134333300004,-7.566694178999967],[112.168922382,-7.490671997999925],[112.15686792600002,-7.465583226999968],[112.10002132800003,-7.462855712999954],[112.06264180200003,-7.41729322499998],[112.06929012300009,-7.397015495999938],[111.97126003600005,-7.404979623999964],[111.94036097700007,-7.44012109099998],[111.82099911300008,-7.439554616999942],[111.80058914900007,-7.46065792099995],[111.84931719800005,-7.50959254199995],[111.80427452600009,-7.545479752999938],[111.77852796200006,-7.655867204999936],[111.73293741400005,-7.726301579999927],[111.72595331600007,-7.777991111999938],[111.75053531200007,-7.799096458999941],[111.78581250200006,-7.833471018999944],[111.79920195000005,-7.836567332999948]]]},"properties":{"name":"NGANJUK","KABKOT":"NGANJUK","WADMKK":"NGANJUK","rawName":"NGANJUK"}},{"type":"Feature","geometry":{"type":"Polygon","coordinates":[[[112.02854355600005,-8.312063975999934],[112.13969601000008,-8.314813469999933],[112.25498478500003,-8.343038626999942],[112.29630682200002,-8.331239619999963],[112.35990094400006,-8.348407162999933],[112.38837,-8.285422],[112.389242695,-8.215237031999948],[112.36681023000006,-8.174881221999954],[112.45310407300008,-8.144528025999932],[112.45592639800009,-8.050256238999964],[112.47729881400005,-7.964295104999962],[112.45297569000002,-7.927092122999966],[112.363604,-7.955381183999975],[112.30657953500008,-7.929297326999972],[112.22088559600002,-7.961781194999958],[112.09627166700011,-7.988633686999947],[111.95673888900006,-7.997738055999946],[111.99385568000008,-8.057717184999944],[111.99687358300008,-8.09210969299994],[112.12075317300003,-8.124778397999933],[112.07858272700003,-8.18751706699993],[112.02862546100005,-8.169017705999977],[112.02265162100002,-8.24425880399997],[112.02854355600005,-8.312063975999934]],[[112.16353205200005,-8.133409954999934],[112.13594319200001,-8.10904027099997],[112.17279228200005,-8.057561580999959],[112.19752780500005,-8.093746421999981],[112.16353205200005,-8.133409954999934]]]},"properties":{"name":"BLITAR","KABKOT":"BLITAR","WADMKK":"BLITAR","rawName":"BLITAR"}},{"type":"Feature","geometry":{"type":"Polygon","coordinates":[[[113.64356,-7.973123055999963],[113.73971446200005,-8.046883309999942],[113.772305544,-8.038239158999943],[113.85387576300002,-8.044142156999953],[113.89508715000011,-8.016015448999951],[114.01472607100004,-8.086909888999969],[114.0467833130001,-8.125204132999954],[114.13524604200006,-8.102911268999947],[114.21327185500002,-8.100015868999947],[114.24689458400007,-8.054258549999929],[114.22434209700009,-7.986662128999967],[114.17668125800003,-7.969501721999961],[114.132003542,-7.988333487999967],[114.09423030700009,-7.88083695499995],[114.08957839400011,-7.807393434999938],[114.07016953000004,-7.760613564999971],[113.95084342900009,-7.76523076899997],[113.9368207770001,-7.79172935899993],[113.8495100020001,-7.795577021999975],[113.80908186800002,-7.813111295999931],[113.76151500700007,-7.792326496999976],[113.7335279670001,-7.809638517999929],[113.72246036500007,-7.879028184999981],[113.62377914600006,-7.961456343999942],[113.64356,-7.973123055999963]]]},"properties":{"name":"BONDOWOSO","KABKOT":"BONDOWOSO","WADMKK":"BONDOWOSO","rawName":"BONDOWOSO"}},{"type":"Feature","geometry":{"type":"Polygon","coordinates":[[[112.94911212600005,-8.35605296999995],[112.98410040800002,-8.320865331999926],[113.09008768700005,-8.286845127999925],[113.23776593600007,-8.285208860999944],[113.30353522000007,-8.307205658999976],[113.31305909500009,-8.228828398999951],[113.36789385500003,-8.185298797999963],[113.36144759800004,-8.027822139999955],[113.33951904700007,-7.941243098999962],[113.27472132000003,-7.925307052999926],[113.26781492100008,-7.902785002999963],[113.21179903100006,-7.911348450999981],[113.15343979700003,-7.972027228999934],[113.07888227700005,-7.984132965999947],[113.05913129100009,-8.010445821999951],[113.0226547100001,-7.969503563999979],[112.99232539900004,-7.962365485999953],[112.9407272730001,-7.981936229999974],[112.90013414500004,-8.061862274999953],[112.92033720100005,-8.087864338999964],[112.90421385400009,-8.192206579999947],[112.92240674400011,-8.23875774399994],[112.91187499500006,-8.269373573999928],[112.94911212600005,-8.35605296999995]]]},"properties":{"name":"LUMAJANG","KABKOT":"LUMAJANG","WADMKK":"LUMAJANG","rawName":"LUMAJANG"}},{"type":"Feature","geometry":{"type":"MultiPolygon","coordinates":[[[[112.49460653400001,-7.408522238999979],[112.56575351000004,-7.39807375099997],[112.59271524400003,-7.372297271999969],[112.66458577100002,-7.351435510999977],[112.59709848300008,-7.204252499999939],[112.66321349700002,-7.193248417999939],[112.67072054700009,-7.173125959999936],[112.63432926500002,-7.097997194999948],[112.65037086500001,-7.020119702999978],[112.60882817600009,-6.979806469999971],[112.58431025300001,-6.88887385299995],[112.55613550500004,-6.846989476999966],[112.52029505500002,-6.905667713999946],[112.45627948000003,-6.883214676999955],[112.4465195790001,-6.874409219999961],[112.44002791100002,-6.87428953999995],[112.43006271900003,-6.930069646999925],[112.3712464140001,-6.984758460999956],[112.47868769800004,-7.00329770899998],[112.5458668980001,-7.057294651999939],[112.53589054000008,-7.095550417999959],[112.47599983900011,-7.125659249999956],[112.46998516500003,-7.15875446299998],[112.50150696500009,-7.191834326999981],[112.44657461700001,-7.213549720999936],[112.39973831400005,-7.260197773999948],[112.41022019200011,-7.305261260999941],[112.370708,-7.324309481999933],[112.47829316000002,-7.30487381599994],[112.47632249100002,-7.384524000999932],[112.49460653400001,-7.408522238999979]]],[[[112.63188494700012,-5.846362858999953],[112.699881,-5.852645],[112.7414616430001,-5.78864770399997],[112.70485474500003,-5.735543684999925],[112.64543172200001,-5.730797103999976],[112.58974174900004,-5.77753471699998],[112.5765083880001,-5.827846808999936],[112.59142498400001,-5.855387493999956],[112.63188494700012,-5.846362858999953]]]]},"properties":{"name":"GRESIK","KABKOT":"GRESIK","WADMKK":"GRESIK","rawName":"GRESIK"}},{"type":"Feature","geometry":{"type":"Polygon","coordinates":[[[113.04046229800008,-7.212781781999979],[113.10060840200003,-7.228910581999969],[113.15201975500008,-7.205674625999961],[113.1777631550001,-7.22739185699993],[113.27458276000004,-7.215461984999934],[113.393604535,-7.217321738999942],[113.37193468400005,-7.194619160999935],[113.3792588980001,-7.148402702999931],[113.36391762500011,-7.100281846999962],[113.39527921400008,-7.070669708999958],[113.3948155710001,-7.030098193999947],[113.48338619000003,-6.896718128999964],[113.43837257300004,-6.887634931999969],[113.12469072200008,-6.892963384999973],[113.09733754400008,-6.94284410299997],[113.10744566000005,-6.981351915999937],[113.14745479300007,-6.990027044999977],[113.11170050700002,-7.034434827999974],[113.11385758600011,-7.112605899999949],[113.0574297930001,-7.163863203999938],[113.04046229800008,-7.212781781999979]]]},"properties":{"name":"SAMPANG","KABKOT":"SAMPANG","WADMKK":"SAMPANG","rawName":"SAMPANG"}},{"type":"Feature","geometry":{"type":"Polygon","coordinates":[[[112.06645466300006,-7.853809331999969],[111.99266022600005,-7.78405704599993],[111.95490511000008,-7.807282789999931],[111.99787069900009,-7.850835797999935],[112.04854160000002,-7.872712344999968],[112.06645466300006,-7.853809331999969]]]},"properties":{"name":"KEDIRI","KABKOT":"KEDIRI","WADMKK":"KEDIRI","rawName":"KEDIRI"}},{"type":"Feature","geometry":{"type":"MultiPolygon","coordinates":[[[[113.30353522000007,-8.307205658999976],[113.36280090100001,-8.355067006999946],[113.387681401,-8.39962591099993],[113.44079350700008,-8.377817147999963],[113.52215236400002,-8.428046585999937],[113.57461727200007,-8.427099257999942],[113.63918351200005,-8.454691054999955],[113.64658718400005,-8.494414261999964],[113.70859728200003,-8.481434768999975],[113.75002668900004,-8.518116200999941],[113.79063042300004,-8.488409021999928],[113.83759286800012,-8.553683815999932],[113.85325496400003,-8.432716478999964],[113.92726028000004,-8.379897373999938],[113.92565398400006,-8.293903604999969],[113.98969069000009,-8.183352766999974],[114.0467833130001,-8.125204132999954],[114.01472607100004,-8.086909888999969],[113.89508715000011,-8.016015448999951],[113.85387576300002,-8.044142156999953],[113.772305544,-8.038239158999943],[113.73971446200005,-8.046883309999942],[113.64356,-7.973123055999963],[113.56284332100006,-7.982712352999954],[113.53259236800011,-8.009169154999938],[113.49462620200006,-8.002136984999936],[113.46543112300003,-8.027497995999965],[113.39097860200002,-7.997172646999957],[113.36144759800004,-8.027822139999955],[113.36789385500003,-8.185298797999963],[113.31305909500009,-8.228828398999951],[113.30353522000007,-8.307205658999976]]],[[[113.29727569500005,-8.444475556999976],[113.26898723500005,-8.496892583999966],[113.3071258120001,-8.50905503499996],[113.39977892000002,-8.496148267999956],[113.40054668200003,-8.457379611999954],[113.29727569500005,-8.444475556999976]]]]},"properties":{"name":"JEMBER","KABKOT":"JEMBER","WADMKK":"JEMBER","rawName":"JEMBER"}},{"type":"Feature","geometry":{"type":"Polygon","coordinates":[[[112.48945983600004,-7.765538147999962],[112.52790669400008,-7.735067604999927],[112.57483788900004,-7.732578659999945],[112.62358537500006,-7.666805293999971],[112.628457507,-7.617234636999967],[112.66311345600002,-7.560194553999963],[112.56362144400009,-7.47607361799993],[112.48859400100002,-7.459949362999964],[112.49460653400001,-7.408522238999979],[112.47632249100002,-7.384524000999932],[112.47829316000002,-7.30487381599994],[112.370708,-7.324309481999933],[112.34579620700003,-7.345062832999929],[112.34842354200009,-7.399949222999965],[112.33265789000006,-7.453087787999948],[112.38125098600005,-7.458898751999925],[112.36848038000005,-7.556148490999931],[112.390425488,-7.650743950999981],[112.42948132000004,-7.698660059999952],[112.45562251600006,-7.779216080999959],[112.48945983600004,-7.765538147999962]]]},"properties":{"name":"MOJOKERTO","KABKOT":"MOJOKERTO","WADMKK":"MOJOKERTO","rawName":"MOJOKERTO"}},{"type":"Feature","geometry":{"type":"Polygon","coordinates":[[[112.66458577100002,-7.351435510999977],[112.70427674400003,-7.336509805999981],[112.812524402,-7.346391208999933],[112.83335217500007,-7.332346625999946],[112.84629668600007,-7.285613361999935],[112.75928025700011,-7.196117690999927],[112.68504530000007,-7.225639899999976],[112.66321349700002,-7.193248417999939],[112.59709848300008,-7.204252499999939],[112.66458577100002,-7.351435510999977]]]},"properties":{"name":"SURABAYA","KABKOT":"SURABAYA","WADMKK":"SURABAYA","rawName":"SURABAYA"}},{"type":"Feature","geometry":{"type":"Polygon","coordinates":[[[111.28870113600004,-7.79348106599997],[111.44991300600009,-7.778522429999953],[111.45872062300003,-7.724979004999966],[111.50121034100005,-7.691195734999951],[111.51068870700004,-7.659249719999934],[111.51166532100007,-7.648859848999962],[111.50496087900007,-7.649340495999979],[111.50383885000008,-7.649974930999974],[111.45166239100007,-7.620227722999971],[111.51143381400004,-7.538332393999951],[111.46579294300005,-7.509012303999953],[111.38356291500008,-7.537130046999948],[111.35439298900008,-7.570409271999949],[111.29428099300009,-7.602155155999981],[111.25849913000008,-7.598478752999938],[111.19402124800007,-7.61835913799996],[111.18450698100008,-7.712283743999933],[111.23649222100005,-7.750321411999948],[111.27454555700007,-7.737476189999938],[111.28870113600004,-7.79348106599997]]]},"properties":{"name":"MAGETAN","KABKOT":"MAGETAN","WADMKK":"MAGETAN","rawName":"MAGETAN"}},{"type":"Feature","geometry":{"type":"Polygon","coordinates":[[[112.35990094400006,-8.348407162999933],[112.37240162900002,-8.374818825999967],[112.44351081600007,-8.397585065999976],[112.55286502800004,-8.40174288299994],[112.67178415600006,-8.444804605999934],[112.71110865500009,-8.417264057999944],[112.81446933600012,-8.399492375999955],[112.87154743400004,-8.40810875099993],[112.93725078200009,-8.381824577999964],[112.94892974700008,-8.357467822999979],[112.94904900900008,-8.356783980999978],[112.94911212600005,-8.35605296999995],[112.91187499500006,-8.269373573999928],[112.92240674400011,-8.23875774399994],[112.90421385400009,-8.192206579999947],[112.92033720100005,-8.087864338999964],[112.90013414500004,-8.061862274999953],[112.9407272730001,-7.981936229999974],[112.93507636200002,-7.95601494999994],[112.88595197900008,-7.952329443999929],[112.80873003500005,-7.926718576999974],[112.77487922300008,-7.87020036499996],[112.71686303400008,-7.820621150999955],[112.63244774300006,-7.797595731999934],[112.58977329200002,-7.764957739999943],[112.56434783000009,-7.879483840999967],[112.59574154200004,-7.903404516999956],[112.49424814800011,-7.932218564999971],[112.47892054300007,-7.886237000999927],[112.49892880200002,-7.821251261999976],[112.48945983600004,-7.765538147999962],[112.45562251600006,-7.779216080999959],[112.41734288900011,-7.764451555999926],[112.38220208900009,-7.785062191999941],[112.34945648700011,-7.761562093999942],[112.30703730500011,-7.801045788999943],[112.32570643600002,-7.871345880999968],[112.30657953500008,-7.929297326999972],[112.363604,-7.955381183999975],[112.45297569000002,-7.927092122999966],[112.47729881400005,-7.964295104999962],[112.45592639800009,-8.050256238999964],[112.45310407300008,-8.144528025999932],[112.36681023000006,-8.174881221999954],[112.389242695,-8.215237031999948],[112.38837,-8.285422],[112.35990094400006,-8.348407162999933]],[[112.64465700700009,-8.04860152599997],[112.59735977500009,-8.005967029999965],[112.58987552400004,-7.936189112999955],[112.63020711600007,-7.910846883999966],[112.66145266100011,-7.925515857999926],[112.65806974500003,-7.965269393999961],[112.6933666430001,-7.985524197999951],[112.64465700700009,-8.04860152599997]]]},"properties":{"name":"MALANG","KABKOT":"MALANG","WADMKK":"MALANG","rawName":"MALANG"}},{"type":"Feature","geometry":{"type":"Polygon","coordinates":[[[112.08152766900002,-7.382554914999957],[112.21125027200003,-7.348632240999962],[112.24999995200005,-7.363159068999948],[112.34579620700003,-7.345062832999929],[112.370708,-7.324309481999933],[112.41022019200011,-7.305261260999941],[112.39973831400005,-7.260197773999948],[112.44657461700001,-7.213549720999936],[112.50150696500009,-7.191834326999981],[112.46998516500003,-7.15875446299998],[112.47599983900011,-7.125659249999956],[112.53589054000008,-7.095550417999959],[112.5458668980001,-7.057294651999939],[112.47868769800004,-7.00329770899998],[112.3712464140001,-6.984758460999956],[112.43006271900003,-6.930069646999925],[112.44002791100002,-6.87428953999995],[112.3311303480001,-6.861579727999981],[112.27074087500012,-6.87734777999998],[112.22298949500009,-6.872648663999939],[112.17068365600005,-6.897257691999926],[112.20300329100007,-6.918303510999976],[112.21881103700002,-7.068676035999943],[112.15220034300012,-7.109419368999966],[112.1186523020001,-7.211231616999953],[112.08958432400004,-7.22792282599994],[112.09001919600007,-7.298076560999959],[112.07256313700009,-7.333253787999979],[112.08152766900002,-7.382554914999957]]]},"properties":{"name":"LAMONGAN","KABKOT":"LAMONGAN","WADMKK":"LAMONGAN","rawName":"LAMONGAN"}},{"type":"Feature","geometry":{"type":"Polygon","coordinates":[[[111.44991300600009,-7.778522429999953],[111.53292327200006,-7.803754221999952],[111.57001266300006,-7.802087208999978],[111.65859690100007,-7.766702063999958],[111.71530020200004,-7.811276298999928],[111.75053531200007,-7.799096458999941],[111.72595331600007,-7.777991111999938],[111.73293741400005,-7.726301579999927],[111.77852796200006,-7.655867204999936],[111.80427452600009,-7.545479752999938],[111.84931719800005,-7.50959254199995],[111.80058914900007,-7.46065792099995],[111.77046201600007,-7.469639719999975],[111.67360616400003,-7.410661355999935],[111.65223662500006,-7.450308311999947],[111.60046289800005,-7.482519786999944],[111.57805654400005,-7.520594249999931],[111.51143381400004,-7.538332393999951],[111.45166239100007,-7.620227722999971],[111.50383885000008,-7.649974930999974],[111.50496087900007,-7.649340495999979],[111.51166532100007,-7.648859848999962],[111.50088317500007,-7.607601869999939],[111.55848899900008,-7.599360841999953],[111.54172542200007,-7.658704589999957],[111.51068870700004,-7.659249719999934],[111.50121034100005,-7.691195734999951],[111.45872062300003,-7.724979004999966],[111.44991300600009,-7.778522429999953]]]},"properties":{"name":"MADIUN","KABKOT":"MADIUN","WADMKK":"MADIUN","rawName":"MADIUN"}},{"type":"Feature","geometry":{"type":"Polygon","coordinates":[[[112.93507636200002,-7.95601494999994],[112.94832259500004,-7.908357735999971],[113.04733877500007,-7.819792058999951],[113.05467965700007,-7.748268369999948],[113.10007994000011,-7.702376094999977],[113.050053692,-7.657453722999946],[112.992717448,-7.657548512999938],[112.95314206,-7.621795381999959],[112.94487161500001,-7.652207547999978],[112.8965770430001,-7.684557780999967],[112.87140238100005,-7.650908563999963],[112.90257360800001,-7.625248164999959],[112.86960152600011,-7.571631690999936],[112.83579051100003,-7.554341077999936],[112.77088995300005,-7.574771388999977],[112.72390020600005,-7.568952383999942],[112.7057001170001,-7.545039089999932],[112.66311345600002,-7.560194553999963],[112.628457507,-7.617234636999967],[112.62358537500006,-7.666805293999971],[112.57483788900004,-7.732578659999945],[112.58977329200002,-7.764957739999943],[112.63244774300006,-7.797595731999934],[112.71686303400008,-7.820621150999955],[112.77487922300008,-7.87020036499996],[112.80873003500005,-7.926718576999974],[112.88595197900008,-7.952329443999929],[112.93507636200002,-7.95601494999994]]]},"properties":{"name":"PASURUAN","KABKOT":"PASURUAN","WADMKK":"PASURUAN","rawName":"PASURUAN"}},{"type":"Feature","geometry":{"type":"Polygon","coordinates":[[[112.16353205200005,-8.133409954999934],[112.19752780500005,-8.093746421999981],[112.17279228200005,-8.057561580999959],[112.13594319200001,-8.10904027099997],[112.16353205200005,-8.133409954999934]]]},"properties":{"name":"BLITAR","KABKOT":"BLITAR","WADMKK":"BLITAR","rawName":"BLITAR"}},{"type":"Feature","geometry":{"type":"Polygon","coordinates":[[[111.67360616400003,-7.410661355999935],[111.77046201600007,-7.469639719999975],[111.80058914900007,-7.46065792099995],[111.82099911300008,-7.439554616999942],[111.94036097700007,-7.44012109099998],[111.97126003600005,-7.404979623999964],[112.06929012300009,-7.397015495999938],[112.08152766900002,-7.382554914999957],[112.07256313700009,-7.333253787999979],[112.09001919600007,-7.298076560999959],[112.08958432400004,-7.22792282599994],[112.1186523020001,-7.211231616999953],[112.15220034300012,-7.109419368999966],[112.08426438200001,-7.067836578999959],[112.03526508000004,-7.07720261399993],[111.99450967200005,-7.123441488999958],[111.87781615800009,-7.133297728999935],[111.79332731800008,-7.081974904999981],[111.71150345400008,-7.080622820999963],[111.65910762800007,-7.038974259999975],[111.65139044200004,-6.999804404999963],[111.62214783300004,-6.986354737999932],[111.61201467500007,-7.13840000099998],[111.58722110400004,-7.185557130999939],[111.52244114000007,-7.237044768999965],[111.45533336400007,-7.257184366999979],[111.42351454400006,-7.30880386299998],[111.45739895100007,-7.324559331999978],[111.46176210500005,-7.360607280999943],[111.52354429000007,-7.371512851999967],[111.57491299900005,-7.348562191999974],[111.67360616400003,-7.410661355999935]]]},"properties":{"name":"BOJONEGORO","KABKOT":"BOJONEGORO","WADMKK":"BOJONEGORO","rawName":"BOJONEGORO"}},{"type":"Feature","geometry":{"type":"Polygon","coordinates":[[[110.90009858100007,-8.211254465999957],[111.02814207200004,-8.256638385999963],[111.10552093300004,-8.232809282999938],[111.14563969500006,-8.278870707999943],[111.19387089400004,-8.278173763999973],[111.27049703200004,-8.24856572799996],[111.37676613600007,-8.273189268999943],[111.40353413600008,-8.270365348999974],[111.39356499700006,-8.229804138999953],[111.42480503100006,-8.17036830099994],[111.38001293000008,-8.155126804999952],[111.35587073200008,-8.120732489999966],[111.34633795500008,-8.066240894999964],[111.36683831300007,-8.030762263999975],[111.34933793500005,-7.978970644999947],[111.31386611800008,-7.934990850999952],[111.27995776900008,-7.91864796599998],[111.24999810300005,-7.945969938999951],[111.15439069200005,-7.922033509999949],[111.12562723200006,-7.970320202999972],[111.13499445400004,-8.021206942999981],[111.11152329400005,-8.06306058499996],[111.06663892300008,-8.060683813999958],[111.03419323300005,-8.07928248099995],[110.95141735000004,-8.070852009999953],[110.91528928600007,-8.11594652499997],[110.89528623700005,-8.16671854699996],[110.90009858100007,-8.211254465999957]]]},"properties":{"name":"PACITAN","KABKOT":"PACITAN","WADMKK":"PACITAN","rawName":"PACITAN"}},{"type":"Feature","geometry":{"type":"Polygon","coordinates":[[[111.62214783300004,-6.986354737999932],[111.65139044200004,-6.999804404999963],[111.65910762800007,-7.038974259999975],[111.71150345400008,-7.080622820999963],[111.79332731800008,-7.081974904999981],[111.87781615800009,-7.133297728999935],[111.99450967200005,-7.123441488999958],[112.03526508000004,-7.07720261399993],[112.08426438200001,-7.067836578999959],[112.15220034300012,-7.109419368999966],[112.21881103700002,-7.068676035999943],[112.20300329100007,-6.918303510999976],[112.17068365600005,-6.897257691999926],[112.1233844620001,-6.902586553999981],[112.04506490200004,-6.880149709999955],[111.96093287200006,-6.760520863999943],[111.87258534400007,-6.797333331999937],[111.82933958000007,-6.800082517999954],[111.69139365500007,-6.75417089299998],[111.66887702300005,-6.763909414999944],[111.65549640500006,-6.827082666999956],[111.61470143200006,-6.832571055999949],[111.60772256500007,-6.90374809399998],[111.59004598600006,-6.913437033999969],[111.57086303400007,-6.956139255999972],[111.62214783300004,-6.986354737999932]]]},"properties":{"name":"TUBAN","KABKOT":"TUBAN","WADMKK":"TUBAN","rawName":"TUBAN"}},{"type":"Feature","geometry":{"type":"Polygon","coordinates":[[[112.90257360800001,-7.625248164999959],[112.87140238100005,-7.650908563999963],[112.8965770430001,-7.684557780999967],[112.94487161500001,-7.652207547999978],[112.95314206,-7.621795381999959],[112.90257360800001,-7.625248164999959]]]},"properties":{"name":"PASURUAN","KABKOT":"PASURUAN","WADMKK":"PASURUAN","rawName":"PASURUAN"}},{"type":"Feature","geometry":{"type":"Polygon","coordinates":[[[112.48945983600004,-7.765538147999962],[112.49892880200002,-7.821251261999976],[112.47892054300007,-7.886237000999927],[112.49424814800011,-7.932218564999971],[112.59574154200004,-7.903404516999956],[112.56434783000009,-7.879483840999967],[112.58977329200002,-7.764957739999943],[112.57483788900004,-7.732578659999945],[112.52790669400008,-7.735067604999927],[112.48945983600004,-7.765538147999962]]]},"properties":{"name":"BATU","KABKOT":"BATU","WADMKK":"BATU","rawName":"BATU"}},{"type":"Feature","geometry":{"type":"Polygon","coordinates":[[[113.04046229800008,-7.212781781999979],[113.0574297930001,-7.163863203999938],[113.11385758600011,-7.112605899999949],[113.11170050700002,-7.034434827999974],[113.14745479300007,-6.990027044999977],[113.10744566000005,-6.981351915999937],[113.09733754400008,-6.94284410299997],[113.12469072200008,-6.892963384999973],[113.010467704,-6.88102540999995],[112.921754286,-6.893927461999965],[112.85799152400011,-6.893528047999951],[112.82791726500011,-6.918151462999958],[112.7852493360001,-6.988119874999938],[112.72323309,-7.038561733999927],[112.6826873980001,-7.032193780999933],[112.67424397500008,-7.074044945999958],[112.70638683800007,-7.098192197999936],[112.69131138500006,-7.153884339999934],[112.72245064800006,-7.175263473999962],[112.77691536200007,-7.159344300999976],[112.86500645500007,-7.162130432999959],[112.9652362920001,-7.200394523999933],[113.04046229800008,-7.212781781999979]]]},"properties":{"name":"BANGKALAN","KABKOT":"BANGKALAN","WADMKK":"BANGKALAN","rawName":"BANGKALAN"}},{"type":"Feature","geometry":null,"properties":{"name":"MOJOKERTO","KABKOT":"MOJOKERTO","WADMKK":"MOJOKERTO","rawName":"MOJOKERTO"}},{"type":"Feature","geometry":{"type":"Polygon","coordinates":[[[113.18050080400008,-7.743755032999957],[113.16396733600004,-7.779251550999959],[113.17858875200011,-7.810146563999979],[113.23512087600011,-7.804206650999959],[113.2364650290001,-7.739303125999982],[113.18050080400008,-7.743755032999957]]]},"properties":{"name":"PROBOLINGGO","KABKOT":"PROBOLINGGO","WADMKK":"PROBOLINGGO","rawName":"PROBOLINGGO"}},{"type":"Feature","geometry":{"type":"MultiPolygon","coordinates":[[[[113.60201585000004,-7.128452256999935],[113.65343963900011,-7.127756384999941],[113.67772565500002,-7.109073875999968],[113.81596816100011,-7.133107701999961],[113.88623195200012,-7.13407424899998],[113.86875410700009,-7.095539237999958],[113.92070318300011,-7.042878706999943],[113.941099355,-7.057287821999978],[113.99189150000007,-7.007277360999979],[114.05979543100011,-7.003048839999963],[114.09338152300006,-6.979819351999936],[114.1032100000001,-6.937646],[113.96728652500008,-6.873092791999966],[113.907577,-6.863419],[113.79573105700001,-6.88585859899996],[113.64253260600003,-6.887582022999936],[113.64008799200008,-6.927690659999939],[113.5765891740001,-7.031864337999934],[113.62119209200011,-7.084835343999941],[113.60201585000004,-7.128452256999935]]],[[[114.33244600000012,-7.055651],[114.27543348900008,-7.08287877999993],[114.276624,-7.111012],[114.313436,-7.159956],[114.386752924,-7.181696129999978],[114.40595727200002,-7.16974576299998],[114.36782677000008,-7.08417439599998],[114.33244600000012,-7.055651]]],[[[114.06342249500005,-7.101282358999981],[114.04896750000012,-7.074399855999957],[113.980576,-7.07272699899994],[113.99182300200005,-7.106615998999928],[114.06342249500005,-7.101282358999981]]],[[[115.78703586400002,-7.112270015999968],[115.74132384400002,-7.15306319299998],[115.75524144600001,-7.172094299999969],[115.83854753000003,-7.206516189999945],[115.87657378100005,-7.202732546999925],[115.899267903,-7.174128727999971],[115.8704774260001,-7.131729710999934],[115.84308347600006,-7.162635088999934],[115.7935688880001,-7.138841716999934],[115.78703586400002,-7.112270015999968]]],[[[115.59122210700002,-6.942501802999971],[115.57292788400002,-6.97559627499993],[115.61525,-7.00304],[115.67499289000011,-6.990305793999937],[115.59122210700002,-6.942501802999971]]],[[[115.34996184800002,-6.938364105999938],[115.3973698310001,-6.90698787599996],[115.40877348900005,-6.939199813999949],[115.45535652800004,-6.913401194999949],[115.54816245600011,-6.966060504999973],[115.57116591500005,-6.942270976999964],[115.55960000800007,-6.906309920999945],[115.43645901400009,-6.846583339999938],[115.39353842100002,-6.834614085999931],[115.24371876700002,-6.828086072999952],[115.253052507,-6.862236241999938],[115.20657025600008,-6.889669022999954],[115.2026937710001,-6.936938237999925],[115.25672534000012,-6.953471219999926],[115.2656724840001,-6.993778830999929],[115.38145806500006,-6.995086552999965],[115.38642362900009,-6.959898611999961],[115.34996184800002,-6.938364105999938]]]]},"properties":{"name":"SUMENEP","KABKOT":"SUMENEP","WADMKK":"SUMENEP","rawName":"SUMENEP"}},{"type":"Feature","geometry":{"type":"Polygon","coordinates":[[[112.02854355600005,-8.312063975999934],[112.02265162100002,-8.24425880399997],[112.02862546100005,-8.169017705999977],[112.07858272700003,-8.18751706699993],[112.12075317300003,-8.124778397999933],[111.99687358300008,-8.09210969299994],[111.99385568000008,-8.057717184999944],[111.95673888900006,-7.997738055999946],[111.92768476600008,-7.962937259999933],[111.89180751300006,-7.952731062999931],[111.86302962000008,-7.907659698999964],[111.80271146600006,-7.865668244999938],[111.79920195000005,-7.836567332999948],[111.78581250200006,-7.833471018999944],[111.75529599300006,-7.908284980999952],[111.73810597300007,-7.958453365999958],[111.75911517600008,-7.983673492999969],[111.75454073700007,-8.030846400999962],[111.78021614500005,-8.039231452999957],[111.84097488300006,-8.11899113499993],[111.81356822200007,-8.136984925999968],[111.73361248000003,-8.142207047999932],[111.71810360900008,-8.191881560999946],[111.75138082100005,-8.288331064999966],[111.76969088000004,-8.288821174999953],[111.79507541000004,-8.255345966999926],[111.90559508300004,-8.303064247999941],[111.95014319800003,-8.277226865999978],[112.02854355600005,-8.312063975999934]]]},"properties":{"name":"TULUNGAGUNG","KABKOT":"TULUNGAGUNG","WADMKK":"TULUNGAGUNG","rawName":"TULUNGAGUNG"}},{"type":"Feature","geometry":{"type":"Polygon","coordinates":[[[112.66311345600002,-7.560194553999963],[112.7057001170001,-7.545039089999932],[112.72390020600005,-7.568952383999942],[112.77088995300005,-7.574771388999977],[112.83579051100003,-7.554341077999936],[112.86960152600011,-7.571631690999936],[112.8729922660001,-7.537588805999974],[112.8219461110001,-7.493501155999979],[112.84150258200009,-7.477407770999946],[112.83335217500007,-7.332346625999946],[112.812524402,-7.346391208999933],[112.70427674400003,-7.336509805999981],[112.66458577100002,-7.351435510999977],[112.59271524400003,-7.372297271999969],[112.56575351000004,-7.39807375099997],[112.49460653400001,-7.408522238999979],[112.48859400100002,-7.459949362999964],[112.56362144400009,-7.47607361799993],[112.66311345600002,-7.560194553999963]]]},"properties":{"name":"SIDOARJO","KABKOT":"SIDOARJO","WADMKK":"SIDOARJO","rawName":"SIDOARJO"}},{"type":"Feature","geometry":{"type":"Polygon","coordinates":[[[113.36144759800004,-8.027822139999955],[113.39097860200002,-7.997172646999957],[113.46543112300003,-8.027497995999965],[113.49462620200006,-8.002136984999936],[113.53259236800011,-8.009169154999938],[113.56284332100006,-7.982712352999954],[113.64356,-7.973123055999963],[113.62377914600006,-7.961456343999942],[113.62307723300012,-7.89453988899993],[113.60297712800002,-7.842993647999947],[113.59770392500002,-7.71552907399996],[113.4856017620001,-7.698938633999944],[113.43845918400007,-7.734118644999967],[113.37604977600006,-7.740679475999968],[113.34522110500006,-7.770872030999953],[113.27705313800004,-7.782109876999925],[113.2364650290001,-7.739303125999982],[113.23512087600011,-7.804206650999959],[113.17858875200011,-7.810146563999979],[113.16396733600004,-7.779251550999959],[113.18050080400008,-7.743755032999957],[113.10813227400001,-7.720659182999952],[113.10007994000011,-7.702376094999977],[113.05467965700007,-7.748268369999948],[113.04733877500007,-7.819792058999951],[112.94832259500004,-7.908357735999971],[112.93507636200002,-7.95601494999994],[112.9407272730001,-7.981936229999974],[112.99232539900004,-7.962365485999953],[113.0226547100001,-7.969503563999979],[113.05913129100009,-8.010445821999951],[113.07888227700005,-7.984132965999947],[113.15343979700003,-7.972027228999934],[113.21179903100006,-7.911348450999981],[113.26781492100008,-7.902785002999963],[113.27472132000003,-7.925307052999926],[113.33951904700007,-7.941243098999962],[113.36144759800004,-8.027822139999955]]]},"properties":{"name":"PROBOLINGGO","KABKOT":"PROBOLINGGO","WADMKK":"PROBOLINGGO","rawName":"PROBOLINGGO"}},{"type":"Feature","geometry":{"type":"Polygon","coordinates":[[[111.19402124800007,-7.61835913799996],[111.25849913000008,-7.598478752999938],[111.29428099300009,-7.602155155999981],[111.35439298900008,-7.570409271999949],[111.38356291500008,-7.537130046999948],[111.46579294300005,-7.509012303999953],[111.51143381400004,-7.538332393999951],[111.57805654400005,-7.520594249999931],[111.60046289800005,-7.482519786999944],[111.65223662500006,-7.450308311999947],[111.67360616400003,-7.410661355999935],[111.57491299900005,-7.348562191999974],[111.52354429000007,-7.371512851999967],[111.46176210500005,-7.360607280999943],[111.37199288900007,-7.340598179999972],[111.28432562700004,-7.288737781999941],[111.24355184200004,-7.285007268999948],[111.22292884800004,-7.25487589599993],[111.14872428600006,-7.264458730999934],[111.13522157000006,-7.29901640099996],[111.14358090300004,-7.367416901999945],[111.11953884800005,-7.409696554999925],[111.14803597300005,-7.525399480999965],[111.15248869900006,-7.561754529999973],[111.19402124800007,-7.61835913799996]]]},"properties":{"name":"NGAWI","KABKOT":"NGAWI","WADMKK":"NGAWI","rawName":"NGAWI"}},{"type":"Feature","geometry":{"type":"Polygon","coordinates":[[[111.42480503100006,-8.17036830099994],[111.46536800800004,-8.175029620999965],[111.48303629500003,-8.125886227999956],[111.52787479700004,-8.107361566999941],[111.53529642300003,-8.059702391999963],[111.58336996100007,-8.025138992999928],[111.65631088400005,-7.996350223999968],[111.64702129500006,-7.954922512999929],[111.68813523700004,-7.933082571999932],[111.74093992400009,-7.879155408999964],[111.75529599300006,-7.908284980999952],[111.78581250200006,-7.833471018999944],[111.75053531200007,-7.799096458999941],[111.71530020200004,-7.811276298999928],[111.65859690100007,-7.766702063999958],[111.57001266300006,-7.802087208999978],[111.53292327200006,-7.803754221999952],[111.44991300600009,-7.778522429999953],[111.28870113600004,-7.79348106599997],[111.30340222400008,-7.838275817999943],[111.27995776900008,-7.91864796599998],[111.31386611800008,-7.934990850999952],[111.34933793500005,-7.978970644999947],[111.36683831300007,-8.030762263999975],[111.34633795500008,-8.066240894999964],[111.35587073200008,-8.120732489999966],[111.38001293000008,-8.155126804999952],[111.42480503100006,-8.17036830099994]]]},"properties":{"name":"PONOROGO","KABKOT":"PONOROGO","WADMKK":"PONOROGO","rawName":"PONOROGO"}},{"type":"Feature","geometry":{"type":"Polygon","coordinates":[[[113.62377914600006,-7.961456343999942],[113.72246036500007,-7.879028184999981],[113.7335279670001,-7.809638517999929],[113.76151500700007,-7.792326496999976],[113.80908186800002,-7.813111295999931],[113.8495100020001,-7.795577021999975],[113.9368207770001,-7.79172935899993],[113.95084342900009,-7.76523076899997],[114.07016953000004,-7.760613564999971],[114.08957839400011,-7.807393434999938],[114.09423030700009,-7.88083695499995],[114.132003542,-7.988333487999967],[114.17668125800003,-7.969501721999961],[114.22434209700009,-7.986662128999967],[114.2831342070001,-7.897236067999927],[114.30628178000006,-7.885158721999971],[114.41354339700001,-7.940119828999968],[114.42403352400004,-7.935486487999981],[114.46452137400001,-7.886070119999943],[114.45303802700005,-7.803616258999966],[114.37936645900004,-7.756476554999949],[114.29573678600002,-7.748175906999961],[114.23853576500005,-7.697715382999945],[114.13282791400002,-7.713344825999968],[114.10115206800003,-7.702346793999936],[114.04658570600009,-7.60901453699995],[113.97347306100005,-7.650723454999934],[113.93050030200004,-7.700806872999976],[113.86712879700008,-7.681843282999978],[113.81707392700002,-7.699327867999955],[113.79375722600003,-7.728959067999938],[113.75106756100001,-7.735675554999943],[113.71290122100004,-7.708850621999943],[113.6677661760001,-7.73659766399993],[113.59770392500002,-7.71552907399996],[113.60297712800002,-7.842993647999947],[113.62307723300012,-7.89453988899993],[113.62377914600006,-7.961456343999942]]]},"properties":{"name":"SITUBONDO","KABKOT":"SITUBONDO","WADMKK":"SITUBONDO","rawName":"SITUBONDO"}},{"type":"Feature","geometry":{"type":"Polygon","coordinates":[[[113.83759286800012,-8.553683815999932],[113.90941102500005,-8.579039918999968],[113.9433657300001,-8.557737832999976],[114.02985716500007,-8.59941062699994],[114.03159033000009,-8.629686665999941],[114.09608304500011,-8.614706498999965],[114.2207017820001,-8.644849310999973],[114.22896461900007,-8.601704146999964],[114.3123313640001,-8.620798242999967],[114.3731695680001,-8.677756834999968],[114.37251031700009,-8.715840584999967],[114.41768914400006,-8.74888236299995],[114.53237608500001,-8.780203436999955],[114.57482429600009,-8.770174732999976],[114.60526147300004,-8.71727274899996],[114.56226154600006,-8.656587478999938],[114.51427756100009,-8.650052672999948],[114.47284471800003,-8.61754512999994],[114.42294884900002,-8.604624359999946],[114.38556050900002,-8.505201016999933],[114.34186859500005,-8.438407858999938],[114.36928782700011,-8.26976667599996],[114.39022909500011,-8.234362634999968],[114.38017978500011,-8.204139331999954],[114.3981541180001,-8.123283010999955],[114.430140359,-8.064872640999965],[114.42403352400004,-7.935486487999981],[114.41354339700001,-7.940119828999968],[114.30628178000006,-7.885158721999971],[114.2831342070001,-7.897236067999927],[114.22434209700009,-7.986662128999967],[114.24689458400007,-8.054258549999929],[114.21327185500002,-8.100015868999947],[114.13524604200006,-8.102911268999947],[114.0467833130001,-8.125204132999954],[113.98969069000009,-8.183352766999974],[113.92565398400006,-8.293903604999969],[113.92726028000004,-8.379897373999938],[113.85325496400003,-8.432716478999964],[113.83759286800012,-8.553683815999932]]]},"properties":{"name":"BANYUWANGI","KABKOT":"BANYUWANGI","WADMKK":"BANYUWANGI","rawName":"BANYUWANGI"}},{"type":"Feature","geometry":{"type":"Polygon","coordinates":[[[111.95673888900006,-7.997738055999946],[112.09627166700011,-7.988633686999947],[112.22088559600002,-7.961781194999958],[112.30657953500008,-7.929297326999972],[112.32570643600002,-7.871345880999968],[112.30703730500011,-7.801045788999943],[112.34945648700011,-7.761562093999942],[112.38220208900009,-7.785062191999941],[112.41734288900011,-7.764451555999926],[112.3963927740001,-7.775746230999971],[112.31040950400006,-7.730790499999955],[112.25721735500008,-7.727962881999929],[112.16542142000003,-7.612981422999951],[112.11047799100004,-7.593147716999965],[112.10118888300008,-7.635174800999948],[112.05906896700003,-7.72352062799996],[112.00224338100008,-7.752345121999952],[111.95425610500007,-7.679565785999955],[111.90029870900008,-7.739726843999961],[111.79920195000005,-7.836567332999948],[111.80271146600006,-7.865668244999938],[111.86302962000008,-7.907659698999964],[111.89180751300006,-7.952731062999931],[111.92768476600008,-7.962937259999933],[111.95673888900006,-7.997738055999946]],[[112.06645466300006,-7.853809331999969],[112.04854160000002,-7.872712344999968],[111.99787069900009,-7.850835797999935],[111.95490511000008,-7.807282789999931],[111.99266022600005,-7.78405704599993],[112.06645466300006,-7.853809331999969]]]},"properties":{"name":"KEDIRI","KABKOT":"KEDIRI","WADMKK":"KEDIRI","rawName":"KEDIRI"}},{"type":"Feature","geometry":{"type":"Polygon","coordinates":[[[112.41734288900011,-7.764451555999926],[112.45562251600006,-7.779216080999959],[112.42948132000004,-7.698660059999952],[112.390425488,-7.650743950999981],[112.36848038000005,-7.556148490999931],[112.38125098600005,-7.458898751999925],[112.33265789000006,-7.453087787999948],[112.34842354200009,-7.399949222999965],[112.34579620700003,-7.345062832999929],[112.24999995200005,-7.363159068999948],[112.21125027200003,-7.348632240999962],[112.08152766900002,-7.382554914999957],[112.06929012300009,-7.397015495999938],[112.06264180200003,-7.41729322499998],[112.10002132800003,-7.462855712999954],[112.15686792600002,-7.465583226999968],[112.168922382,-7.490671997999925],[112.11134333300004,-7.566694178999967],[112.11047799100004,-7.593147716999965],[112.16542142000003,-7.612981422999951],[112.25721735500008,-7.727962881999929],[112.31040950400006,-7.730790499999955],[112.3963927740001,-7.775746230999971],[112.41734288900011,-7.764451555999926]]]},"properties":{"name":"JOMBANG","KABKOT":"JOMBANG","WADMKK":"JOMBANG","rawName":"JOMBANG"}}]}